[{"OBJECT_NAME":"TDRS 3","OBJECT_ID":"1988-091B","EPOCH":"2026-02-26T20:18:23.173920","MEAN_MOTION":1.00261626,"ECCENTRICITY":0.0044225,"INCLINATION":12.6852,"RA_OF_ASC_NODE":341.7287,"ARG_OF_PERICENTER":351.9002,"MEAN_ANOMALY":78.3575,"EPHEMERIS_TYPE":0,"CLASSIFICATION_TYPE":"U","NORAD_CAT_ID":19548,"ELEMENT_SET_NO":999,"REV_AT_EPOCH":12428,"BSTAR":0,"MEAN_MOTION_DOT":-3.06e-6,"MEAN_MOTION_DDOT":0},{"OBJECT_NAME":"HST","OBJECT_ID":"1990-037B","EPOCH":"2026-03-03T03:45:23.037696","MEAN_MOTION":15.29358901,"ECCENTRICITY":0.0001675,"INCLINATION":28.4701,"RA_OF_ASC_NODE":84.5634,"ARG_OF_PERICENTER":60.3567,"MEAN_ANOMALY":299.7195,"EPHEMERIS_TYPE":0,"CLASSIFICATION_TYPE":"U","NORAD_CAT_ID":20580,"ELEMENT_SET_NO":999,"REV_AT_EPOCH":77231,"BSTAR":0.00029119,"MEAN_MOTION_DOT":8.766e-5,"MEAN_MOTION_DDOT":0},{"OBJECT_NAME":"TDRS 5","OBJECT_ID":"1991-054B","EPOCH":"2026-03-02T13:08:38.512608","MEAN_MOTION":1.00265486,"ECCENTRICITY":0.0011089,"INCLINATION":14.0843,"RA_OF_ASC_NODE":354.567,"ARG_OF_PERICENTER":277.1432,"MEAN_ANOMALY":278.2866,"EPHEMERIS_TYPE":0,"CLASSIFICATION_TYPE":"U","NORAD_CAT_ID":21639,"ELEMENT_SET_NO":999,"REV_AT_EPOCH":12664,"BSTAR":0,"MEAN_MOTION_DOT":7.4e-7,"MEAN_MOTION_DDOT":0},{"OBJECT_NAME":"TDRS 6","OBJECT_ID":"1993-003B","EPOCH":"2026-03-03T00:14:21.038208","MEAN_MOTION":1.00279261,"ECCENTRICITY":0.0005594,"INCLINATION":14.1806,"RA_OF_ASC_NODE":357.845,"ARG_OF_PERICENTER":201.246,"MEAN_ANOMALY":279.2715,"EPHEMERIS_TYPE":0,"CLASSIFICATION_TYPE":"U","NORAD_CAT_ID":22314,"ELEMENT_SET_NO":999,"REV_AT_EPOCH":12134,"BSTAR":0,"MEAN_MOTION_DOT":-3.05e-6,"MEAN_MOTION_DDOT":0},{"OBJECT_NAME":"TDRS 7","OBJECT_ID":"1995-035B","EPOCH":"2026-03-02T14:48:21.278016","MEAN_MOTION":1.00276971,"ECCENTRICITY":0.0008125,"INCLINATION":13.4211,"RA_OF_ASC_NODE":348.9207,"ARG_OF_PERICENTER":47.1447,"MEAN_ANOMALY":75.4029,"EPHEMERIS_TYPE":0,"CLASSIFICATION_TYPE":"U","NORAD_CAT_ID":23613,"ELEMENT_SET_NO":999,"REV_AT_EPOCH":11218,"BSTAR":0,"MEAN_MOTION_DOT":-2.49e-6,"MEAN_MOTION_DDOT":0},{"OBJECT_NAME":"ISS (ZARYA)","OBJECT_ID":"1998-067A","EPOCH":"2026-03-02T22:19:59.515680","MEAN_MOTION":15.48408287,"ECCENTRICITY":0.0008215,"INCLINATION":51.6319,"RA_OF_ASC_NODE":105.7724,"ARG_OF_PERICENTER":150.8374,"MEAN_ANOMALY":209.3074,"EPHEMERIS_TYPE":0,"CLASSIFICATION_TYPE":"U","NORAD_CAT_ID":25544,"ELEMENT_SET_NO":999,"REV_AT_EPOCH":55528,"BSTAR":0.00018075,"MEAN_MOTION_DOT":9.325e-5,"MEAN_MOTION_DDOT":0},{"OBJECT_NAME":"TERRA","OBJECT_ID":"1999-068A","EPOCH":"2026-03-03T03:12:29.210688","MEAN_MOTION":14.61006268,"ECCENTRICITY":0.0002257,"INCLINATION":97.9607,"RA_OF_ASC_NODE":115.8185,"ARG_OF_PERICENTER":167.8691,"MEAN_ANOMALY":217.2698,"EPHEMERIS_TYPE":0,"CLASSIFICATION_TYPE":"U","NORAD_CAT_ID":25994,"ELEMENT_SET_NO":999,"REV_AT_EPOCH":39412,"BSTAR":0.00011359,"MEAN_MOTION_DOT":5.13e-6,"MEAN_MOTION_DDOT":0},{"OBJECT_NAME":"TDRS 8","OBJECT_ID":"2000-034A","EPOCH":"2026-03-02T21:21:55.413216","MEAN_MOTION":1.0027679,"ECCENTRICITY":0.0006157,"INCLINATION":12.5164,"RA_OF_ASC_NODE":32.2081,"ARG_OF_PERICENTER":307.0903,"MEAN_ANOMALY":226.5804,"EPHEMERIS_TYPE":0,"CLASSIFICATION_TYPE":"U","NORAD_CAT_ID":26388,"ELEMENT_SET_NO":999,"REV_AT_EPOCH":9411,"BSTAR":0,"MEAN_MOTION_DOT":-2.06e-6,"MEAN_MOTION_DDOT":0},{"OBJECT_NAME":"TIMED","OBJECT_ID":"2001-055B","EPOCH":"2026-03-03T03:43:08.618304","MEAN_MOTION":14.94997468,"ECCENTRICITY":0.0002949,"INCLINATION":74.066,"RA_OF_ASC_NODE":88.4733,"ARG_OF_PERICENTER":282.8989,"MEAN_ANOMALY":77.1865,"EPHEMERIS_TYPE":0,"CLASSIFICATION_TYPE":"U","NORAD_CAT_ID":26998,"ELEMENT_SET_NO":999,"REV_AT_EPOCH":31497,"BSTAR":0.00014517,"MEAN_MOTION_DOT":1.548e-5,"MEAN_MOTION_DDOT":0},{"OBJECT_NAME":"AQUA","OBJECT_ID":"2002-022A","EPOCH":"2026-03-03T04:21:29.172096","MEAN_MOTION":14.61957361,"ECCENTRICITY":6.83e-5,"INCLINATION":98.4163,"RA_OF_ASC_NODE":29.4285,"ARG_OF_PERICENTER":58.4731,"MEAN_ANOMALY":357.181,"EPHEMERIS_TYPE":0,"CLASSIFICATION_TYPE":"U","NORAD_CAT_ID":27424,"ELEMENT_SET_NO":999,"REV_AT_EPOCH":26778,"BSTAR":0.00025624,"MEAN_MOTION_DOT":1.234e-5,"MEAN_MOTION_DDOT":0},{"OBJECT_NAME":"SORCE","OBJECT_ID":"2003-004A","EPOCH":"2026-03-02T15:44:59.920512","MEAN_MOTION":15.03033305,"ECCENTRICITY":0.00168426,"INCLINATION":39.9904,"RA_OF_ASC_NODE":149.189,"ARG_OF_PERICENTER":2.4266,"MEAN_ANOMALY":357.6607,"EPHEMERIS_TYPE":0,"CLASSIFICATION_TYPE":"U","NORAD_CAT_ID":27651,"ELEMENT_SET_NO":999,"REV_AT_EPOCH":25586,"BSTAR":0.0003404856,"MEAN_MOTION_DOT":4.531e-5,"MEAN_MOTION_DDOT":0},{"OBJECT_NAME":"AURA","OBJECT_ID":"2004-026A","EPOCH":"2026-03-03T02:56:59.523360","MEAN_MOTION":14.61129673,"ECCENTRICITY":0.0001025,"INCLINATION":98.33,"RA_OF_ASC_NODE":17.7838,"ARG_OF_PERICENTER":78.1843,"MEAN_ANOMALY":281.9472,"EPHEMERIS_TYPE":0,"CLASSIFICATION_TYPE":"U","NORAD_CAT_ID":28376,"ELEMENT_SET_NO":999,"REV_AT_EPOCH":15072,"BSTAR":0.00026047,"MEAN_MOTION_DOT":1.233e-5,"MEAN_MOTION_DDOT":0},{"OBJECT_NAME":"SWIFT","OBJECT_ID":"2004-047A","EPOCH":"2026-03-02T21:22:07.257792","MEAN_MOTION":15.58608096,"ECCENTRICITY":0.0002958,"INCLINATION":20.5531,"RA_OF_ASC_NODE":278.9198,"ARG_OF_PERICENTER":303.2489,"MEAN_ANOMALY":56.7671,"EPHEMERIS_TYPE":0,"CLASSIFICATION_TYPE":"U","NORAD_CAT_ID":28485,"ELEMENT_SET_NO":999,"REV_AT_EPOCH":17020,"BSTAR":0.00055519,"MEAN_MOTION_DOT":0.00045443,"MEAN_MOTION_DDOT":0},{"OBJECT_NAME":"THEMIS A","OBJECT_ID":"2007-004A","EPOCH":"2026-03-02T20:30:41.618304","MEAN_MOTION":0.87846902,"ECCENTRICITY":0.8406376,"INCLINATION":6.7104,"RA_OF_ASC_NODE":120.5035,"ARG_OF_PERICENTER":176.9206,"MEAN_ANOMALY":199.033,"EPHEMERIS_TYPE":0,"CLASSIFICATION_TYPE":"U","NORAD_CAT_ID":30580,"ELEMENT_SET_NO":999,"REV_AT_EPOCH":4034,"BSTAR":-0.0041647,"MEAN_MOTION_DOT":-1.55e-6,"MEAN_MOTION_DDOT":0},{"OBJECT_NAME":"THEMIS D","OBJECT_ID":"2007-004D","EPOCH":"2026-03-02T17:44:50.608896","MEAN_MOTION":0.87836024,"ECCENTRICITY":0.83593771,"INCLINATION":6.5819,"RA_OF_ASC_NODE":84.8181,"ARG_OF_PERICENTER":215.4145,"MEAN_ANOMALY":150.0134,"EPHEMERIS_TYPE":0,"CLASSIFICATION_TYPE":"U","NORAD_CAT_ID":30797,"ELEMENT_SET_NO":999,"REV_AT_EPOCH":4014,"BSTAR":0,"MEAN_MOTION_DOT":-2.2e-6,"MEAN_MOTION_DDOT":0},{"OBJECT_NAME":"THEMIS E","OBJECT_ID":"2007-004E","EPOCH":"2026-03-03T03:27:50.993280","MEAN_MOTION":0.87837726,"ECCENTRICITY":0.8363088,"INCLINATION":4.1049,"RA_OF_ASC_NODE":99.9857,"ARG_OF_PERICENTER":201.236,"MEAN_ANOMALY":292.4037,"EPHEMERIS_TYPE":0,"CLASSIFICATION_TYPE":"U","NORAD_CAT_ID":30798,"ELEMENT_SET_NO":999,"REV_AT_EPOCH":6498,"BSTAR":0,"MEAN_MOTION_DOT":-2.22e-6,"MEAN_MOTION_DDOT":0},{"OBJECT_NAME":"FGRST (GLAST)","OBJECT_ID":"2008-029A","EPOCH":"2026-03-02T20:53:24.072000","MEAN_MOTION":15.23265943,"ECCENTRICITY":0.0008569,"INCLINATION":25.5811,"RA_OF_ASC_NODE":222.3471,"ARG_OF_PERICENTER":148.5067,"MEAN_ANOMALY":211.5985,"EPHEMERIS_TYPE":0,"CLASSIFICATION_TYPE":"U","NORAD_CAT_ID":33053,"ELEMENT_SET_NO":999,"REV_AT_EPOCH":97960,"BSTAR":0.00017585,"MEAN_MOTION_DOT":4.628e-5,"MEAN_MOTION_DDOT":0}]
